STARLINK-36783          
1 67873U 26034Z   26068.71438253  .00199999  00000+0  99078-3 0  9992
2 67873  53.1597 211.0277 0001021  93.0706 267.0434 15.80933313  3940
STARLINK-36730          
1 67874U 26034AA  26068.71363251  .00268399  00000+0  13171-2 0  9998
2 67874  53.1597 211.0236 0000961  96.0371 264.0761 15.80946863  3943
STARLINK-36727          
1 67875U 26034AB  26068.71288454  .00201520  00000+0  99901-3 0  9999
2 67875  53.1597 211.0177 0001548  55.2686 304.8483 15.80913702  3946
STARLINK-36743          
1 67876U 26034AC  26068.90178709  .00376035  00000+0  18144-2 0  9995
2 67876  53.1597 210.0610 0001993  51.6212 308.4990 15.81023541  3977
STARLINK-36784          
1 67877U 26034AD  26068.83781935  .00349938  00000+0  16967-2 0  9992
2 67877  53.1597 210.3735 0001443  47.5017 312.6127 15.80986555  3966
STARLINK-36689          
1 67878U 26034AE  26068.90028677  .00345635  00000+0  16757-2 0  9995
2 67878  53.1593 210.0512 0001302  48.1518 311.9616 15.81000887  3972
STARLINK-36818          
1 67879U 26035A   26068.91668981 -.01172546  00000+0 -51867-2 0  9999
2 67879  97.2741   1.2558 0001109  96.0501 303.6769 15.87116391  3797
STARLINK-36821          
1 67880U 26035B   26068.91668981 -.01179537  00000+0 -52145-2 0  9998
2 67880  97.2733   1.2592 0001123  91.6932 316.5718 15.87145870  3794
STARLINK-36808          
1 67881U 26035C   26068.91668981 -.01168249  00000+0 -51505-2 0  9996
2 67881  97.2736   1.2571 0001104  89.0520 314.4302 15.87173242  3798
STARLINK-36817          
1 67882U 26035D   26068.91668981 -.01217765  00000+0 -53031-2 0  9991
2 67882  97.2719   1.2624 0001123  87.7793 329.9241 15.87100662  3796
STARLINK-36856          
1 67883U 26035E   26068.91668981 -.01211483  00000+0 -52706-2 0  9991
2 67883  97.2727   1.2609 0001077  86.5164 326.6387 15.87108226  3795
STARLINK-36842          
1 67884U 26035F   26068.91668981 -.01221886  00000+0 -53215-2 0  9996
2 67884  97.2718   1.2641 0001146  76.0093 346.0900 15.87107001  3791
