CCSDS_OMM_VERS = 2.0
CREATION_DATE  = 
ORIGINATOR     = 

OBJECT_NAME    = STARLINK-36783
OBJECT_ID      = 2026-034Z
CENTER_NAME    = EARTH
REF_FRAME      = TEME
TIME_SYSTEM    = UTC
MEAN_ELEMENT_THEORY = SGP/SGP4

EPOCH          = 2026-03-09T17:08:42.650592
MEAN_MOTION    = 15.80933313
ECCENTRICITY   = .00010214
INCLINATION    = 53.1597
RA_OF_ASC_NODE = 211.0277
ARG_OF_PERICENTER = 93.0706
MEAN_ANOMALY   = 267.0434

EPHEMERIS_TYPE = 0
CLASSIFICATION_TYPE = U
NORAD_CAT_ID   = 67873
ELEMENT_SET_NO = 999
REV_AT_EPOCH   = 394
BSTAR          = .99078401E-3
MEAN_MOTION_DOT = .199999E-2
MEAN_MOTION_DDOT = 0

CCSDS_OMM_VERS = 2.0
CREATION_DATE  = 
ORIGINATOR     = 

OBJECT_NAME    = STARLINK-36730
OBJECT_ID      = 2026-034AA
CENTER_NAME    = EARTH
REF_FRAME      = TEME
TIME_SYSTEM    = UTC
MEAN_ELEMENT_THEORY = SGP/SGP4

EPOCH          = 2026-03-09T17:07:37.848864
MEAN_MOTION    = 15.80946863
ECCENTRICITY   = .00009612
INCLINATION    = 53.1597
RA_OF_ASC_NODE = 211.0236
ARG_OF_PERICENTER = 96.0371
MEAN_ANOMALY   = 264.0761

EPHEMERIS_TYPE = 0
CLASSIFICATION_TYPE = U
NORAD_CAT_ID   = 67874
ELEMENT_SET_NO = 999
REV_AT_EPOCH   = 394
BSTAR          = .13170532E-2
MEAN_MOTION_DOT = .268399E-2
MEAN_MOTION_DDOT = 0

CCSDS_OMM_VERS = 2.0
CREATION_DATE  = 
ORIGINATOR     = 

OBJECT_NAME    = STARLINK-36727
OBJECT_ID      = 2026-034AB
CENTER_NAME    = EARTH
REF_FRAME      = TEME
TIME_SYSTEM    = UTC
MEAN_ELEMENT_THEORY = SGP/SGP4

EPOCH          = 2026-03-09T17:06:33.224256
MEAN_MOTION    = 15.80913702
ECCENTRICITY   = .00015485
INCLINATION    = 53.1597
RA_OF_ASC_NODE = 211.0177
ARG_OF_PERICENTER = 55.2686
MEAN_ANOMALY   = 304.8483

EPHEMERIS_TYPE = 0
CLASSIFICATION_TYPE = U
NORAD_CAT_ID   = 67875
ELEMENT_SET_NO = 999
REV_AT_EPOCH   = 394
BSTAR          = .99900936E-3
MEAN_MOTION_DOT = .20152E-2
MEAN_MOTION_DDOT = 0

CCSDS_OMM_VERS = 2.0
CREATION_DATE  = 
ORIGINATOR     = 

OBJECT_NAME    = STARLINK-36743
OBJECT_ID      = 2026-034AC
CENTER_NAME    = EARTH
REF_FRAME      = TEME
TIME_SYSTEM    = UTC
MEAN_ELEMENT_THEORY = SGP/SGP4

EPOCH          = 2026-03-09T21:38:34.404576
MEAN_MOTION    = 15.81023541
ECCENTRICITY   = .00019938
INCLINATION    = 53.1597
RA_OF_ASC_NODE = 210.0610
ARG_OF_PERICENTER = 51.6212
MEAN_ANOMALY   = 308.4990

EPHEMERIS_TYPE = 0
CLASSIFICATION_TYPE = U
NORAD_CAT_ID   = 67876
ELEMENT_SET_NO = 999
REV_AT_EPOCH   = 397
BSTAR          = .18143919E-2
MEAN_MOTION_DOT = .376035E-2
MEAN_MOTION_DDOT = 0

CCSDS_OMM_VERS = 2.0
CREATION_DATE  = 
ORIGINATOR     = 

OBJECT_NAME    = STARLINK-36784
OBJECT_ID      = 2026-034AD
CENTER_NAME    = EARTH
REF_FRAME      = TEME
TIME_SYSTEM    = UTC
MEAN_ELEMENT_THEORY = SGP/SGP4

EPOCH          = 2026-03-09T20:06:27.591840
MEAN_MOTION    = 15.80986555
ECCENTRICITY   = .00014432
INCLINATION    = 53.1597
RA_OF_ASC_NODE = 210.3735
ARG_OF_PERICENTER = 47.5017
MEAN_ANOMALY   = 312.6127

EPHEMERIS_TYPE = 0
CLASSIFICATION_TYPE = U
NORAD_CAT_ID   = 67877
ELEMENT_SET_NO = 999
REV_AT_EPOCH   = 396
BSTAR          = .16967446E-2
MEAN_MOTION_DOT = .349938E-2
MEAN_MOTION_DDOT = 0

CCSDS_OMM_VERS = 2.0
CREATION_DATE  = 
ORIGINATOR     = 

OBJECT_NAME    = STARLINK-36689
OBJECT_ID      = 2026-034AE
CENTER_NAME    = EARTH
REF_FRAME      = TEME
TIME_SYSTEM    = UTC
MEAN_ELEMENT_THEORY = SGP/SGP4

EPOCH          = 2026-03-09T21:36:24.776928
MEAN_MOTION    = 15.81000887
ECCENTRICITY   = .00013024
INCLINATION    = 53.1593
RA_OF_ASC_NODE = 210.0512
ARG_OF_PERICENTER = 48.1518
MEAN_ANOMALY   = 311.9616

EPHEMERIS_TYPE = 0
CLASSIFICATION_TYPE = U
NORAD_CAT_ID   = 67878
ELEMENT_SET_NO = 999
REV_AT_EPOCH   = 397
BSTAR          = .16756557E-2
MEAN_MOTION_DOT = .345635E-2
MEAN_MOTION_DDOT = 0

CCSDS_OMM_VERS = 2.0
CREATION_DATE  = 
ORIGINATOR     = 

OBJECT_NAME    = STARLINK-36818
OBJECT_ID      = 2026-035A
CENTER_NAME    = EARTH
REF_FRAME      = TEME
TIME_SYSTEM    = UTC
MEAN_ELEMENT_THEORY = SGP/SGP4

EPOCH          = 2026-03-09T22:00:01.999584
MEAN_MOTION    = 15.87116391
ECCENTRICITY   = .00011092
INCLINATION    = 97.2741
RA_OF_ASC_NODE = 1.2558
ARG_OF_PERICENTER = 96.0501
MEAN_ANOMALY   = 303.6769

EPHEMERIS_TYPE = 0
CLASSIFICATION_TYPE = U
NORAD_CAT_ID   = 67879
ELEMENT_SET_NO = 999
REV_AT_EPOCH   = 379
BSTAR          = -.5186738E-2
MEAN_MOTION_DOT = -.1172546E-1
MEAN_MOTION_DDOT = 0

CCSDS_OMM_VERS = 2.0
CREATION_DATE  = 
ORIGINATOR     = 

OBJECT_NAME    = STARLINK-36821
OBJECT_ID      = 2026-035B
CENTER_NAME    = EARTH
REF_FRAME      = TEME
TIME_SYSTEM    = UTC
MEAN_ELEMENT_THEORY = SGP/SGP4

EPOCH          = 2026-03-09T22:00:01.999584
MEAN_MOTION    = 15.87145870
ECCENTRICITY   = .00011231
INCLINATION    = 97.2733
RA_OF_ASC_NODE = 1.2592
ARG_OF_PERICENTER = 91.6932
MEAN_ANOMALY   = 316.5718

EPHEMERIS_TYPE = 0
CLASSIFICATION_TYPE = U
NORAD_CAT_ID   = 67880
ELEMENT_SET_NO = 999
REV_AT_EPOCH   = 379
BSTAR          = -.52144831E-2
MEAN_MOTION_DOT = -.1179537E-1
MEAN_MOTION_DDOT = 0

CCSDS_OMM_VERS = 2.0
CREATION_DATE  = 
ORIGINATOR     = 

OBJECT_NAME    = STARLINK-36808
OBJECT_ID      = 2026-035C
CENTER_NAME    = EARTH
REF_FRAME      = TEME
TIME_SYSTEM    = UTC
MEAN_ELEMENT_THEORY = SGP/SGP4

EPOCH          = 2026-03-09T22:00:01.999584
MEAN_MOTION    = 15.87173242
ECCENTRICITY   = .00011045
INCLINATION    = 97.2736
RA_OF_ASC_NODE = 1.2571
ARG_OF_PERICENTER = 89.0520
MEAN_ANOMALY   = 314.4302

EPHEMERIS_TYPE = 0
CLASSIFICATION_TYPE = U
NORAD_CAT_ID   = 67881
ELEMENT_SET_NO = 999
REV_AT_EPOCH   = 379
BSTAR          = -.51505443E-2
MEAN_MOTION_DOT = -.1168249E-1
MEAN_MOTION_DDOT = 0

CCSDS_OMM_VERS = 2.0
CREATION_DATE  = 
ORIGINATOR     = 

OBJECT_NAME    = STARLINK-36817
OBJECT_ID      = 2026-035D
CENTER_NAME    = EARTH
REF_FRAME      = TEME
TIME_SYSTEM    = UTC
MEAN_ELEMENT_THEORY = SGP/SGP4

EPOCH          = 2026-03-09T22:00:01.999584
MEAN_MOTION    = 15.87100662
ECCENTRICITY   = .00011236
INCLINATION    = 97.2719
RA_OF_ASC_NODE = 1.2624
ARG_OF_PERICENTER = 87.7793
MEAN_ANOMALY   = 329.9241

EPHEMERIS_TYPE = 0
CLASSIFICATION_TYPE = U
NORAD_CAT_ID   = 67882
ELEMENT_SET_NO = 999
REV_AT_EPOCH   = 379
BSTAR          = -.53031054E-2
MEAN_MOTION_DOT = -.1217765E-1
MEAN_MOTION_DDOT = 0

CCSDS_OMM_VERS = 2.0
CREATION_DATE  = 
ORIGINATOR     = 

OBJECT_NAME    = STARLINK-36856
OBJECT_ID      = 2026-035E
CENTER_NAME    = EARTH
REF_FRAME      = TEME
TIME_SYSTEM    = UTC
MEAN_ELEMENT_THEORY = SGP/SGP4

EPOCH          = 2026-03-09T22:00:01.999584
MEAN_MOTION    = 15.87108226
ECCENTRICITY   = .00010775
INCLINATION    = 97.2727
RA_OF_ASC_NODE = 1.2609
ARG_OF_PERICENTER = 86.5164
MEAN_ANOMALY   = 326.6387

EPHEMERIS_TYPE = 0
CLASSIFICATION_TYPE = U
NORAD_CAT_ID   = 67883
ELEMENT_SET_NO = 999
REV_AT_EPOCH   = 379
BSTAR          = -.52706142E-2
MEAN_MOTION_DOT = -.1211483E-1
MEAN_MOTION_DDOT = 0

CCSDS_OMM_VERS = 2.0
CREATION_DATE  = 
ORIGINATOR     = 

OBJECT_NAME    = STARLINK-36842
OBJECT_ID      = 2026-035F
CENTER_NAME    = EARTH
REF_FRAME      = TEME
TIME_SYSTEM    = UTC
MEAN_ELEMENT_THEORY = SGP/SGP4

EPOCH          = 2026-03-09T22:00:01.999584
MEAN_MOTION    = 15.87107001
ECCENTRICITY   = .00011466
INCLINATION    = 97.2718
RA_OF_ASC_NODE = 1.2641
ARG_OF_PERICENTER = 76.0093
MEAN_ANOMALY   = 346.0900

EPHEMERIS_TYPE = 0
CLASSIFICATION_TYPE = U
NORAD_CAT_ID   = 67884
ELEMENT_SET_NO = 999
REV_AT_EPOCH   = 379
BSTAR          = -.53215069E-2
MEAN_MOTION_DOT = -.1221886E-1
MEAN_MOTION_DDOT = 0

